{
    "links": {
        "self": "http://www.neowsapp.com/rest/v1/neo/3432641?api_key=iIulBulltgU6a56xZRHN4H3l9WmuAYTsLGpBGhQ2"
    },
    "id": "3432641",
    "neo_reference_id": "3432641",
    "name": "(2008 UV)",
    "designation": "2008 UV",
    "nasa_jpl_url": "http://ssd.jpl.nasa.gov/sbdb.cgi?sstr=3432641",
    "absolute_magnitude_h": 24.8,
    "estimated_diameter": {
        "kilometers": {
            "estimated_diameter_min": 0.0291443905,
            "estimated_diameter_max": 0.0651688382
        },
        "meters": {
            "estimated_diameter_min": 29.1443904535,
            "estimated_diameter_max": 65.1688382168
        },
        "miles": {
            "estimated_diameter_min": 0.018109479,
            "estimated_diameter_max": 0.0404940262
        },
        "feet": {
            "estimated_diameter_min": 95.6180819754,
            "estimated_diameter_max": 213.8085311752
        }
    },
    "is_potentially_hazardous_asteroid": false,
    "close_approach_data": [
        {
            "close_approach_date": "2008-10-19",
            "close_approach_date_full": "2008-Oct-19 08:16",
            "epoch_date_close_approach": 1224404160000,
            "relative_velocity": {
                "kilometers_per_second": "7.8781578363",
                "kilometers_per_hour": "28361.3682108504",
                "miles_per_hour": "17622.6512641254"
            },
            "miss_distance": {
                "astronomical": "0.0829736676",
                "lunar": "32.2767566964",
                "kilometers": "12412683.939048012",
                "miles": "7712884.1485340856"
            },
            "orbiting_body": "Earth"
        }
    ],
    "orbital_data": {
        "orbit_id": "8",
        "orbit_determination_date": "2017-04-06 09:02:31",
        "first_observation_date": "2008-10-21",
        "last_observation_date": "2008-11-01",
        "data_arc_in_days": 11,
        "observations_used": 31,
        "orbit_uncertainty": "9",
        "minimum_orbit_intersection": ".0829522",
        "jupiter_tisserand_invariant": "4.212",
        "epoch_osculation": "2454765.5",
        "eccentricity": ".3401245411749121",
        "semi_major_axis": "1.633515390458236",
        "inclination": "13.04906847587955",
        "ascending_node_longitude": "205.6173556725444",
        "orbital_period": "762.5762456020874",
        "perihelion_distance": "1.077916717776471",
        "perihelion_argument": "185.3157078444979",
        "aphelion_distance": "2.189114063140001",
        "perihelion_time": "2454763.461928412119",
        "mean_anomaly": ".9621408690194212",
        "mean_motion": ".4720839418696608",
        "equinox": "J2000",
        "orbit_class": {
            "orbit_class_type": "AMO",
            "orbit_class_description": "Near-Earth asteroid orbits similar to that of 1221 Amor",
            "orbit_class_range": "1.017 AU < q (perihelion) < 1.3 AU"
        }
    },
    "is_sentry_object": false
}